SOYUZ-MS 28             
1 66664U 25275A   25357.50408698  .00011486  00000+0  21071-3 0  9994
2 66664  51.6323  89.1709 0003169 291.0240  69.0409 15.49754932  4114
1998-067XS              
1 66906U 98067XS  25357.55486240  .00028470  00000+0  48513-3 0  9997
2 66906  51.6316  88.7613 0002815 256.8779 103.1896 15.51136039  3290
1998-067XT              
1 66907U 98067XT  25357.47904909  .00065231  00000+0  10349-2 0  9997
2 66907  51.6313  89.0045 0003882 291.7662  68.2915 15.52745506  3283
1998-067XU              
1 66908U 98067XU  25357.47806396  .00064549  00000+0  10207-2 0  9993
2 66908  51.6312  88.9976 0003921 289.9814  70.0754 15.52842233  3283
SILVERSAT               
1 66909U 98067XV  25356.51144008  .00071888  00000+0  11325-2 0  9999
2 66909  51.6306  93.7929 0003866 288.2093  71.8476 15.52898333  3134
1998-067XW              
1 66910U 98067XW  25357.47495927  .00062264  00000+0  97986-3 0  9992
2 66910  51.6309  88.9767 0003988 265.4983  94.5551 15.52989430  3286
1998-067XX              
1 66911U 98067XX  25357.53598873  .00072234  00000+0  11146-2 0  9995
2 66911  51.6308  88.6344 0003682 272.7322  87.3247 15.53470318  3286
1998-067XY              
1 66912U 98067XY  25356.58173682  .00053250  00000+0  86868-3 0  9998
2 66912  51.6324  93.5129 0003912 278.0711  81.9835 15.52056622  3132
